OBJECT_NAME,OBJECT_ID,EPOCH,MEAN_MOTION,ECCENTRICITY,INCLINATION,RA_OF_ASC_NODE,ARG_OF_PERICENTER,MEAN_ANOMALY,EPHEMERIS_TYPE,CLASSIFICATION_TYPE,NORAD_CAT_ID,ELEMENT_SET_NO,REV_AT_EPOCH,BSTAR,MEAN_MOTION_DOT,MEAN_MOTION_DDOT
PERSEUS-M1,2014-033AF,2026-06-27T01:42:53.873568,14.95665219,.0009804,97.9648,122.3656,264.1554,95.8549,0,U,40039,999,65211,.17656E-3,.1904E-4,0
POLYITAN-1,2014-033AJ,2026-06-27T00:52:25.227840,15.33595602,.0008865,98.0939,205.2302,114.7933,245.4230,0,U,40042,999,65510,.62898E-3,.20395E-3,0
TIGRISAT,2014-033AK,2026-06-27T03:42:24.868800,14.85196626,.0050094,97.7841,327.9382,43.2551,317.2581,0,U,40043,999,64710,.21812E-3,.1856E-4,0
AEROCUBE 6A,2014-033AM,2026-06-26T23:24:28.276128,14.98188064,.0038167,97.7227,344.8216,343.9568,16.0443,0,U,40045,999,64808,.41232E-3,.4905E-4,0
AEROCUBE 6B,2014-033AN,2026-06-26T16:49:46.462944,14.99648140,.00377402,97.7227,344.3618,336.0186,23.9278,0,U,40046,999,64818,.37409477E-3,.4617E-4,0
CANX-4,2014-034C,2026-06-27T05:12:17.371008,14.81281845,.0012394,98.3111,53.8976,345.1677,14.9169,0,U,40055,999,64601,.12806E-3,.942E-5,0
CANX-5,2014-034D,2026-06-27T05:09:51.914016,14.81299077,.0012392,98.3113,53.9400,345.4382,14.6471,0,U,40056,999,63682,.12736E-3,.937E-5,0
UKUBE-1,2014-037F,2026-06-26T22:51:09.387072,15.13699275,.0003059,98.4236,182.2506,116.7089,243.4453,0,U,40074,999,65003,.50852E-3,.9082E-4,0
BRITE-PL2 (HEWELIUSZ),2014-049B,2026-06-27T05:09:02.108736,14.94630549,.0015339,97.9107,290.2923,77.8705,282.4232,0,U,40119,999,64294,.16618E-3,.1744E-4,0
AEROCUBE 5C,2015-058B,2026-06-27T05:29:13.700256,14.91492691,.0131256,64.7663,231.3510,59.3548,302.0427,0,U,40965,999,36715,.20493E-3,.2246E-4,0
AEROCUBE 7,2015-058C,2026-06-27T04:42:35.433216,14.95780468,.0120963,64.7605,213.4639,57.7302,303.5464,0,U,40966,999,36745,.27929E-3,.3437E-4,0
FOX-1A (AO-85),2015-058D,2026-06-26T19:26:21.337152,14.91008064,.01310245,64.7748,249.0783,52.8500,308.4494,0,U,40967,999,11500,.20610904E-3,.2228E-4,0
SINOD-D 1,2015-058E,2026-06-26T10:30:11.270880,14.95955298,.0119663,64.7739,229.9429,49.4285,311.7170,0,U,40968,999,11804,.26324E-3,.3234E-4,0
SNAP-3 ALICE,2015-058G,2026-06-27T03:59:52.410912,15.62619873,.0024625,64.7505,69.3782,5.4087,354.7321,0,U,40970,999,11844,.17042E-2,.158458E-2,0
LMRST-SAT,2015-058H,2026-06-26T21:38:45.378240,14.90625518,.0132629,64.7743,245.1492,54.8471,306.4983,0,U,40971,999,11500,.17639E-3,.1868E-4,0
SNAP-3 EDDIE,2015-058J,2026-06-27T02:01:56.529120,15.63765166,.0025289,64.7419,60.3121,8.8401,351.3187,0,U,40972,999,12057,.14128E-2,.137145E-2,0
PROPCUBE 3,2015-058K,2026-06-27T04:21:06.865344,14.94304914,.0124589,64.7670,221.3092,55.9789,305.3084,0,U,40973,999,11629,.24405E-3,.2884E-4,0
BISONSAT,2015-058L,2026-06-27T01:23:52.590912,15.16436488,.0080208,64.7571,141.7241,43.2827,317.4561,0,U,40974,999,11711,.7632E-3,.16018E-3,0
SNAP-3 JIMI,2015-058M,2026-06-27T04:10:57.295200,15.02389164,.0106685,64.7630,188.1713,51.3697,309.6911,0,U,40975,999,11572,.42268E-3,.6169E-4,0
PROPCUBE 1 (FLORA),2015-058N,2026-06-26T15:56:36.031488,14.89258404,.01312682,64.7749,265.8631,57.2315,304.1365,0,U,40976,999,11767,.1909522E-3,.1953E-4,0
SINOD-D 3,2015-058P,2026-06-26T11:28:46.691616,14.94063839,.0119787,64.7720,246.8052,54.4457,306.7753,0,U,40977,999,11614,.24358E-3,.2825E-4,0
HORYU-4,2016-012D,2026-06-26T20:23:26.833632,16.08207360,.00088162,30.9825,7.5384,329.4490,30.5661,0,U,41340,999,57236,.12212368E-2,.1084955E-1,.65487385E-3
RAVAN,2016-067B,2026-06-26T22:52:15.723264,15.55621120,.0002661,97.9878,68.6594,357.9218,2.2023,0,U,41849,999,52921,.81761E-3,.56284E-3,0
CELTEE 1,2016-067C,2026-06-27T03:35:04.805088,15.19775634,.0001497,98.0666,45.3961,128.5599,231.5768,0,U,41850,999,52739,.25348E-3,.5347E-4,0
OPTICUBE 04,2016-067D,2026-06-27T02:06:04.692384,15.09698868,.0017,98.0693,30.8876,84.8822,275.4345,0,U,41851,999,52666,.15793E-3,.2481E-4,0
AEROCUBE 8D,2016-067E,2026-06-26T03:33:15.782976,15.24514880,.00050223,98.0682,48.0013,102.1384,258.0415,0,U,41852,999,52743,.34050891E-3,.8298E-4,0
AEROCUBE 8C,2016-067F,2026-06-26T21:26:37.504032,15.24778663,.0006051,98.0548,46.0183,42.3441,317.8261,0,U,41853,999,52754,.32979E-3,.8099E-4,0
CORVUS BC2,2017-042X,2026-06-26T23:02:12.827616,15.06354829,.0014681,97.4070,338.9304,80.4438,279.8448,0,U,42846,999,48853,.20502E-3,.2964E-4,0
CORVUS BC1,2017-042Y,2026-06-27T00:28:32.441952,15.06517962,.0013077,97.4096,339.8084,59.1572,301.0941,0,U,42847,999,48857,.20461E-3,.297E-4,0
MAKERSAT 0,2017-073D,2026-06-27T04:07:21.244224,15.32414291,.0104796,97.4619,60.7702,236.8226,122.2932,0,U,43016,999,46799,.50687E-3,.18824E-3,0
